[{"OBJECT_NAME":"ONEWEB-0568","OBJECT_ID":"2023-043S","EPOCH":"2026-03-09T12:44:31.428384","MEAN_MOTION":13.16596619,"ECCENTRICITY":0.00015762,"INCLINATION":87.9005,"RA_OF_ASC_NODE":248.5927,"ARG_OF_PERICENTER":85.2602,"MEAN_ANOMALY":274.8708,"EPHEMERIS_TYPE":0,"CLASSIFICATION_TYPE":"U","NORAD_CAT_ID":56062,"ELEMENT_SET_NO":999,"REV_AT_EPOCH":14586,"BSTAR":-0.00031110899,"MEAN_MOTION_DOT":-1.06e-6,"MEAN_MOTION_DDOT":0},{"OBJECT_NAME":"ONEWEB-0574","OBJECT_ID":"2023-043T","EPOCH":"2026-03-09T13:48:57.505248","MEAN_MOTION":13.2182565,"ECCENTRICITY":0.0001436,"INCLINATION":87.9173,"RA_OF_ASC_NODE":263.8283,"ARG_OF_PERICENTER":91.5424,"MEAN_ANOMALY":268.5874,"EPHEMERIS_TYPE":0,"CLASSIFICATION_TYPE":"U","NORAD_CAT_ID":56063,"ELEMENT_SET_NO":999,"REV_AT_EPOCH":14511,"BSTAR":9.7251e-5,"MEAN_MOTION_DOT":5.3e-7,"MEAN_MOTION_DDOT":0},{"OBJECT_NAME":"ONEWEB-0575","OBJECT_ID":"2023-043U","EPOCH":"2026-03-09T12:35:23.708544","MEAN_MOTION":13.16593977,"ECCENTRICITY":0.00012206,"INCLINATION":87.9,"RA_OF_ASC_NODE":248.5916,"ARG_OF_PERICENTER":88.0094,"MEAN_ANOMALY":272.1176,"EPHEMERIS_TYPE":0,"CLASSIFICATION_TYPE":"U","NORAD_CAT_ID":56064,"ELEMENT_SET_NO":999,"REV_AT_EPOCH":14585,"BSTAR":-9.7892426e-5,"MEAN_MOTION_DOT":-2.5e-7,"MEAN_MOTION_DDOT":0},{"OBJECT_NAME":"ONEWEB-0576","OBJECT_ID":"2023-043V","EPOCH":"2026-03-09T12:08:02.530176","MEAN_MOTION":13.16593709,"ECCENTRICITY":0.00014083,"INCLINATION":87.9007,"RA_OF_ASC_NODE":248.5992,"ARG_OF_PERICENTER":92.2984,"MEAN_ANOMALY":267.8308,"EPHEMERIS_TYPE":0,"CLASSIFICATION_TYPE":"U","NORAD_CAT_ID":56065,"ELEMENT_SET_NO":999,"REV_AT_EPOCH":14584,"BSTAR":1.5852351e-5,"MEAN_MOTION_DOT":1.9e-7,"MEAN_MOTION_DDOT":0},{"OBJECT_NAME":"ONEWEB-0577","OBJECT_ID":"2023-043W","EPOCH":"2026-03-09T12:17:09.551904","MEAN_MOTION":13.16593985,"ECCENTRICITY":8.17e-5,"INCLINATION":87.9005,"RA_OF_ASC_NODE":248.5969,"ARG_OF_PERICENTER":95.3102,"MEAN_ANOMALY":264.8122,"EPHEMERIS_TYPE":0,"CLASSIFICATION_TYPE":"U","NORAD_CAT_ID":56066,"ELEMENT_SET_NO":999,"REV_AT_EPOCH":14587,"BSTAR":9.1523123e-5,"MEAN_MOTION_DOT":4.8e-7,"MEAN_MOTION_DDOT":0},{"OBJECT_NAME":"ONEWEB-0578","OBJECT_ID":"2023-043X","EPOCH":"2026-03-09T13:29:58.373952","MEAN_MOTION":13.21825481,"ECCENTRICITY":0.0001633,"INCLINATION":87.9162,"RA_OF_ASC_NODE":263.8372,"ARG_OF_PERICENTER":83.3013,"MEAN_ANOMALY":276.8307,"EPHEMERIS_TYPE":0,"CLASSIFICATION_TYPE":"U","NORAD_CAT_ID":56067,"ELEMENT_SET_NO":999,"REV_AT_EPOCH":14507,"BSTAR":-0.00055369,"MEAN_MOTION_DOT":-2.16e-6,"MEAN_MOTION_DDOT":0},{"OBJECT_NAME":"ONEWEB-0579","OBJECT_ID":"2023-043Y","EPOCH":"2026-03-09T13:15:46.393920","MEAN_MOTION":13.21826519,"ECCENTRICITY":0.00017029,"INCLINATION":87.9172,"RA_OF_ASC_NODE":263.8299,"ARG_OF_PERICENTER":101.8789,"MEAN_ANOMALY":258.2536,"EPHEMERIS_TYPE":0,"CLASSIFICATION_TYPE":"U","NORAD_CAT_ID":56068,"ELEMENT_SET_NO":999,"REV_AT_EPOCH":14508,"BSTAR":0.00013882412,"MEAN_MOTION_DOT":7.0e-7,"MEAN_MOTION_DDOT":0},{"OBJECT_NAME":"ONEWEB-0581","OBJECT_ID":"2023-043Z","EPOCH":"2026-03-09T12:26:16.993536","MEAN_MOTION":13.16594346,"ECCENTRICITY":0.00010297,"INCLINATION":87.9005,"RA_OF_ASC_NODE":248.6071,"ARG_OF_PERICENTER":100.5361,"MEAN_ANOMALY":259.5886,"EPHEMERIS_TYPE":0,"CLASSIFICATION_TYPE":"U","NORAD_CAT_ID":56069,"ELEMENT_SET_NO":999,"REV_AT_EPOCH":14584,"BSTAR":-2.1032219e-5,"MEAN_MOTION_DOT":5.0e-8,"MEAN_MOTION_DDOT":0},{"OBJECT_NAME":"ONEWEB-0609","OBJECT_ID":"2023-043AA","EPOCH":"2026-03-09T14:59:35.401920","MEAN_MOTION":13.15547705,"ECCENTRICITY":0.0001696,"INCLINATION":87.8934,"RA_OF_ASC_NODE":279.0965,"ARG_OF_PERICENTER":90.0975,"MEAN_ANOMALY":270.035,"EPHEMERIS_TYPE":0,"CLASSIFICATION_TYPE":"U","NORAD_CAT_ID":56070,"ELEMENT_SET_NO":999,"REV_AT_EPOCH":14334,"BSTAR":-4.0627e-5,"MEAN_MOTION_DOT":-2.0e-8,"MEAN_MOTION_DDOT":0},{"OBJECT_NAME":"ONEWEB-0613","OBJECT_ID":"2023-043AB","EPOCH":"2026-03-09T14:52:44.839488","MEAN_MOTION":13.15547755,"ECCENTRICITY":0.0001756,"INCLINATION":87.8937,"RA_OF_ASC_NODE":279.1082,"ARG_OF_PERICENTER":96.6869,"MEAN_ANOMALY":263.4461,"EPHEMERIS_TYPE":0,"CLASSIFICATION_TYPE":"U","NORAD_CAT_ID":56071,"ELEMENT_SET_NO":999,"REV_AT_EPOCH":14334,"BSTAR":-0.00018646,"MEAN_MOTION_DOT":-5.7e-7,"MEAN_MOTION_DDOT":0},{"OBJECT_NAME":"ONEWEB-0630","OBJECT_ID":"2023-043AC","EPOCH":"2026-03-09T20:14:28.207392","MEAN_MOTION":13.15547189,"ECCENTRICITY":0.0001709,"INCLINATION":87.8937,"RA_OF_ASC_NODE":279.033,"ARG_OF_PERICENTER":97.7951,"MEAN_ANOMALY":262.3373,"EPHEMERIS_TYPE":0,"CLASSIFICATION_TYPE":"U","NORAD_CAT_ID":56072,"ELEMENT_SET_NO":999,"REV_AT_EPOCH":14336,"BSTAR":-0.00060064,"MEAN_MOTION_DOT":-2.13e-6,"MEAN_MOTION_DDOT":0},{"OBJECT_NAME":"ONEWEB-0632","OBJECT_ID":"2023-043AD","EPOCH":"2026-03-09T14:39:03.369024","MEAN_MOTION":13.15547691,"ECCENTRICITY":0.0001427,"INCLINATION":87.894,"RA_OF_ASC_NODE":279.0973,"ARG_OF_PERICENTER":93.7391,"MEAN_ANOMALY":266.3903,"EPHEMERIS_TYPE":0,"CLASSIFICATION_TYPE":"U","NORAD_CAT_ID":56073,"ELEMENT_SET_NO":999,"REV_AT_EPOCH":14333,"BSTAR":-0.00044453,"MEAN_MOTION_DOT":-1.55e-6,"MEAN_MOTION_DDOT":0},{"OBJECT_NAME":"ONEWEB-0633","OBJECT_ID":"2023-043AE","EPOCH":"2026-03-09T19:58:29.720352","MEAN_MOTION":13.15547863,"ECCENTRICITY":0.0001983,"INCLINATION":87.8947,"RA_OF_ASC_NODE":279.0207,"ARG_OF_PERICENTER":96.8679,"MEAN_ANOMALY":263.2677,"EPHEMERIS_TYPE":0,"CLASSIFICATION_TYPE":"U","NORAD_CAT_ID":56074,"ELEMENT_SET_NO":999,"REV_AT_EPOCH":14334,"BSTAR":-0.00014128,"MEAN_MOTION_DOT":-4.0e-7,"MEAN_MOTION_DDOT":0},{"OBJECT_NAME":"ONEWEB-0634","OBJECT_ID":"2023-043AF","EPOCH":"2026-03-09T19:37:57.675360","MEAN_MOTION":13.15547576,"ECCENTRICITY":0.0001851,"INCLINATION":87.8938,"RA_OF_ASC_NODE":279.0722,"ARG_OF_PERICENTER":81.8371,"MEAN_ANOMALY":278.2969,"EPHEMERIS_TYPE":0,"CLASSIFICATION_TYPE":"U","NORAD_CAT_ID":56075,"ELEMENT_SET_NO":999,"REV_AT_EPOCH":14333,"BSTAR":3.0703e-5,"MEAN_MOTION_DOT":2.4e-7,"MEAN_MOTION_DDOT":0},{"OBJECT_NAME":"ONEWEB-0635","OBJECT_ID":"2023-043AG","EPOCH":"2026-03-09T14:02:32.586432","MEAN_MOTION":13.15547847,"ECCENTRICITY":0.0001302,"INCLINATION":87.8945,"RA_OF_ASC_NODE":279.0725,"ARG_OF_PERICENTER":92.8426,"MEAN_ANOMALY":267.2854,"EPHEMERIS_TYPE":0,"CLASSIFICATION_TYPE":"U","NORAD_CAT_ID":56076,"ELEMENT_SET_NO":999,"REV_AT_EPOCH":14333,"BSTAR":0.00015311,"MEAN_MOTION_DOT":7.0e-7,"MEAN_MOTION_DDOT":0},{"OBJECT_NAME":"ONEWEB-0636","OBJECT_ID":"2023-043AH","EPOCH":"2026-03-09T15:40:39.541152","MEAN_MOTION":13.15548027,"ECCENTRICITY":0.0001361,"INCLINATION":87.8939,"RA_OF_ASC_NODE":279.0731,"ARG_OF_PERICENTER":88.9472,"MEAN_ANOMALY":271.1814,"EPHEMERIS_TYPE":0,"CLASSIFICATION_TYPE":"U","NORAD_CAT_ID":56077,"ELEMENT_SET_NO":999,"REV_AT_EPOCH":14332,"BSTAR":0.00041913,"MEAN_MOTION_DOT":1.71e-6,"MEAN_MOTION_DDOT":0},{"OBJECT_NAME":"ONEWEB-0637","OBJECT_ID":"2023-043AJ","EPOCH":"2026-03-09T15:31:32.452032","MEAN_MOTION":13.15548373,"ECCENTRICITY":0.0001431,"INCLINATION":87.8938,"RA_OF_ASC_NODE":279.0924,"ARG_OF_PERICENTER":78.0579,"MEAN_ANOMALY":282.0712,"EPHEMERIS_TYPE":0,"CLASSIFICATION_TYPE":"U","NORAD_CAT_ID":56078,"ELEMENT_SET_NO":999,"REV_AT_EPOCH":14334,"BSTAR":0.00041942,"MEAN_MOTION_DOT":1.71e-6,"MEAN_MOTION_DDOT":0}]
