ONEWEB-0568             
1 56062U 23043S   26068.53091931 -.00000106  00000+0 -31111-3 0  9992
2 56062  87.9005 248.5927 0001576  85.2602 274.8708 13.16596619145866
ONEWEB-0574             
1 56063U 23043T   26068.57566557  .00000053  00000+0  97251-4 0  9995
2 56063  87.9173 263.8283 0001436  91.5424 268.5874 13.21825650145113
ONEWEB-0575             
1 56064U 23043U   26068.52457996 -.00000025  00000+0 -97892-4 0  9999
2 56064  87.9000 248.5916 0001220  88.0094 272.1176 13.16593977145856
ONEWEB-0576             
1 56065U 23043V   26068.50558484  .00000019  00000+0  15852-4 0  9999
2 56065  87.9007 248.5992 0001408  92.2984 267.8308 13.16593709145841
ONEWEB-0577             
1 56066U 23043W   26068.51191611  .00000048  00000+0  91523-4 0  9997
2 56066  87.9005 248.5969 0000817  95.3102 264.8122 13.16593985145873
ONEWEB-0578             
1 56067U 23043X   26068.56248118 -.00000216  00000+0 -55369-3 0  9994
2 56067  87.9162 263.8372 0001633  83.3013 276.8307 13.21825481145076
ONEWEB-0579             
1 56068U 23043Y   26068.55262030  .00000070  00000+0  13882-3 0  9993
2 56068  87.9172 263.8299 0001702 101.8789 258.2536 13.21826519145081
ONEWEB-0581             
1 56069U 23043Z   26068.51825224  .00000005  00000+0 -21032-4 0  9996
2 56069  87.9005 248.6071 0001029 100.5361 259.5886 13.16594346145840
ONEWEB-0609             
1 56070U 23043AA  26068.62471530 -.00000002  00000+0 -40627-4 0  9996
2 56070  87.8934 279.0965 0001696  90.0975 270.0350 13.15547705143349
ONEWEB-0613             
1 56071U 23043AB  26068.61996342 -.00000057  00000+0 -18646-3 0  9994
2 56071  87.8937 279.1082 0001756  96.6869 263.4461 13.15547755143349
ONEWEB-0630             
1 56072U 23043AC  26068.84338203 -.00000213  00000+0 -60064-3 0  9991
2 56072  87.8937 279.0330 0001709  97.7951 262.3373 13.15547189143360
ONEWEB-0632             
1 56073U 23043AD  26068.61045566 -.00000155  00000+0 -44453-3 0  9993
2 56073  87.8940 279.0973 0001427  93.7391 266.3903 13.15547691143337
ONEWEB-0633             
1 56074U 23043AE  26068.83228843 -.00000040  00000+0 -14128-3 0  9998
2 56074  87.8947 279.0207 0001983  96.8679 263.2677 13.15547863143341
ONEWEB-0634             
1 56075U 23043AF  26068.81802865  .00000024  00000+0  30703-4 0  9997
2 56075  87.8938 279.0722 0001851  81.8371 278.2969 13.15547576143331
ONEWEB-0635             
1 56076U 23043AG  26068.58509938  .00000070  00000+0  15311-3 0  9995
2 56076  87.8945 279.0725 0001302  92.8426 267.2854 13.15547847143339
ONEWEB-0636             
1 56077U 23043AH  26068.65323543  .00000171  00000+0  41913-3 0  9999
2 56077  87.8939 279.0731 0001361  88.9472 271.1814 13.15548027143322
ONEWEB-0637             
1 56078U 23043AJ  26068.64690338  .00000171  00000+0  41942-3 0  9990
2 56078  87.8938 279.0924 0001431  78.0579 282.0712 13.15548373143346
